{
    "links": {
        "self": "http://www.neowsapp.com/rest/v1/neo/3562832?api_key=iIulBulltgU6a56xZRHN4H3l9WmuAYTsLGpBGhQ2"
    },
    "id": "3562832",
    "neo_reference_id": "3562832",
    "name": "(2011 GR59)",
    "designation": "2011 GR59",
    "nasa_jpl_url": "http://ssd.jpl.nasa.gov/sbdb.cgi?sstr=3562832",
    "absolute_magnitude_h": 23.7,
    "estimated_diameter": {
        "kilometers": {
            "estimated_diameter_min": 0.0483676488,
            "estimated_diameter_max": 0.1081533507
        },
        "meters": {
            "estimated_diameter_min": 48.3676488219,
            "estimated_diameter_max": 108.1533506775
        },
        "miles": {
            "estimated_diameter_min": 0.0300542543,
            "estimated_diameter_max": 0.0672033557
        },
        "feet": {
            "estimated_diameter_min": 158.6865169607,
            "estimated_diameter_max": 354.8338390368
        }
    },
    "is_potentially_hazardous_asteroid": false,
    "close_approach_data": [
        {
            "close_approach_date": "2007-12-28",
            "close_approach_date_full": "2007-Dec-28 18:58",
            "epoch_date_close_approach": 1198868280000,
            "relative_velocity": {
                "kilometers_per_second": "5.5767333423",
                "kilometers_per_hour": "20076.2400321712",
                "miles_per_hour": "12474.5948133233"
            },
            "miss_distance": {
                "astronomical": "0.0936381689",
                "lunar": "36.4252477021",
                "kilometers": "14008070.618140243",
                "miles": "8704211.4624636334"
            },
            "orbiting_body": "Mars"
        },
        {
            "close_approach_date": "2011-04-26",
            "close_approach_date_full": "2011-Apr-26 20:06",
            "epoch_date_close_approach": 1303848360000,
            "relative_velocity": {
                "kilometers_per_second": "5.4801761977",
                "kilometers_per_hour": "19728.6343118805",
                "miles_per_hour": "12258.6061367348"
            },
            "miss_distance": {
                "astronomical": "0.0351663334",
                "lunar": "13.6797036926",
                "kilometers": "5260808.572349858",
                "miles": "3268914.8652617204"
            },
            "orbiting_body": "Earth"
        },
        {
            "close_approach_date": "2011-09-03",
            "close_approach_date_full": "2011-Sep-03 06:47",
            "epoch_date_close_approach": 1315032420000,
            "relative_velocity": {
                "kilometers_per_second": "2.9348331863",
                "kilometers_per_hour": "10565.399470612",
                "miles_per_hour": "6564.9283543922"
            },
            "miss_distance": {
                "astronomical": "0.2825704395",
                "lunar": "109.9199009655",
                "kilometers": "42271935.874163865",
                "miles": "26266562.955496737"
            },
            "orbiting_body": "Earth"
        },
        {
            "close_approach_date": "2018-08-26",
            "close_approach_date_full": "2018-Aug-26 09:01",
            "epoch_date_close_approach": 1535274060000,
            "relative_velocity": {
                "kilometers_per_second": "16.8036142296",
                "kilometers_per_hour": "60493.0112265542",
                "miles_per_hour": "37588.0046701887"
            },
            "miss_distance": {
                "astronomical": "0.3615893576",
                "lunar": "140.6582601064",
                "kilometers": "54092997.711628312",
                "miles": "33611830.1767302256"
            },
            "orbiting_body": "Earth"
        },
        {
            "close_approach_date": "2021-03-27",
            "close_approach_date_full": "2021-Mar-27 03:47",
            "epoch_date_close_approach": 1616816820000,
            "relative_velocity": {
                "kilometers_per_second": "16.2978203361",
                "kilometers_per_hour": "58672.1532100637",
                "miles_per_hour": "36456.5943098865"
            },
            "miss_distance": {
                "astronomical": "0.3423852646",
                "lunar": "133.1878679294",
                "kilometers": "51220106.303546402",
                "miles": "31826698.2334162676"
            },
            "orbiting_body": "Earth"
        }
    ],
    "orbital_data": {
        "orbit_id": "13",
        "orbit_determination_date": "2017-04-06 08:53:45",
        "first_observation_date": "2011-04-08",
        "last_observation_date": "2011-04-21",
        "data_arc_in_days": 13,
        "observations_used": 54,
        "orbit_uncertainty": "8",
        "minimum_orbit_intersection": ".00745932",
        "jupiter_tisserand_invariant": "5.072",
        "epoch_osculation": "2455664.5",
        "eccentricity": ".2542857648364618",
        "semi_major_axis": "1.263066065609932",
        "inclination": "1.639019954907092",
        "ascending_node_longitude": "142.4053210088776",
        "orbital_period": "518.4865892181955",
        "perihelion_distance": ".9418863450773295",
        "perihelion_argument": "115.1732515186694",
        "aphelion_distance": "1.584245786142534",
        "perihelion_time": "2455714.945559413954",
        "mean_anomaly": "324.9742119339928",
        "mean_motion": ".6943284696000124",
        "equinox": "J2000",
        "orbit_class": {
            "orbit_class_type": "APO",
            "orbit_class_description": "Near-Earth asteroid orbits which cross the Earth’s orbit similar to that of 1862 Apollo",
            "orbit_class_range": "a (semi-major axis) > 1.0 AU; q (perihelion) < 1.017 AU"
        }
    },
    "is_sentry_object": false
}